[{"OBJECT_NAME":"TEVEL2-1","OBJECT_ID":"2025-052H","EPOCH":"2026-03-09T15:32:51.927072","MEAN_MOTION":15.30341923,"ECCENTRICITY":0.0004767,"INCLINATION":97.3991,"RA_OF_ASC_NODE":324.7682,"ARG_OF_PERICENTER":104.8919,"MEAN_ANOMALY":255.2849,"EPHEMERIS_TYPE":0,"CLASSIFICATION_TYPE":"U","NORAD_CAT_ID":63217,"ELEMENT_SET_NO":999,"REV_AT_EPOCH":5485,"BSTAR":0.000706,"MEAN_MOTION_DOT":0.00020683,"MEAN_MOTION_DDOT":0},{"OBJECT_NAME":"STARLINK-35512","OBJECT_ID":"2025-253M","EPOCH":"2026-03-09T10:29:14.706528","MEAN_MOTION":15.27582162,"ECCENTRICITY":3.671e-5,"INCLINATION":42.9985,"RA_OF_ASC_NODE":214.1234,"ARG_OF_PERICENTER":188.9051,"MEAN_ANOMALY":171.1794,"EPHEMERIS_TYPE":0,"CLASSIFICATION_TYPE":"U","NORAD_CAT_ID":66330,"ELEMENT_SET_NO":999,"REV_AT_EPOCH":2020,"BSTAR":0.0010683445,"MEAN_MOTION_DOT":0.00029255,"MEAN_MOTION_DDOT":0}]
